MEAN_MOTION;ECCENTRICITY;INCLINATION;RA_OF_ASC_NODE;ARG_OF_PERICENTER;MEAN_ANOMALY;BSTAR;MEAN_MOTION_DOT;MEAN_MOTION_DDOT;TYPE
14.34545455;0.0002442;86.3939;115.848;80.0563;280.0908;2.2737E-5;8.4E-7;0;Iridium
14.34545621;0.0002414;86.3937;115.4394;79.6618;280.485;2.6774E-5;9.5E-7;0;Iridium
14.34545635;0.0002414;86.3937;115.4102;79.7182;280.4286;2.7048E-5;9.6E-7;0;Iridium
14.34545797;0.000239;86.3936;115.0307;79.4146;280.7319;3.0256E-5;1.05E-6;0;Iridium
14.34545811;0.0002388;86.3936;115.0015;79.3566;280.7899;3.0519E-5;1.06E-6;0;Iridium
14.34545938;0.0002367;86.3934;114.6511;79.144;281.0022;3.1883E-5;1.1E-6;0;Iridium
14.34546149;0.0002341;86.3933;114.2132;78.7472;281.3987;3.372E-5;1.15E-6;0;Iridium
14.34546149;0.0002341;86.3933;114.2132;78.7472;281.3987;3.372E-5;1.15E-6;0;Iridium
14.34546296;0.000232;86.3932;113.8043;78.5921;281.5536;3.2497E-5;1.11E-6;0;Iridium
14.34546409;0.0002321;86.3931;113.7751;78.7277;281.4179;3.5464E-5;1.2E-6;0;Iridium
14.34546576;0.0002297;86.3931;113.3956;78.6284;281.517;3.4452E-5;1.17E-6;0;Iridium
14.34546551;0.0002298;86.393;113.3371;78.9091;281.2363;3.2006E-5;1.1E-6;0;Iridium
14.34546702;0.0002273;86.393;112.9576;78.5926;281.5525;3.0455E-5;1.06E-6;0;Iridium
14.34546702;0.0002273;86.393;112.9576;78.5926;281.5525;3.0455E-5;1.06E-6;0;Iridium
14.34546699;0.000227;86.393;112.9283;78.5297;281.6154;2.9476E-5;1.03E-6;0;Iridium
14.3454679;0.0002251;86.3929;112.6071;78.0428;282.102;2.6839E-5;9.5E-7;0;Iridium
14.34546914;0.0002205;86.3927;112.1107;77.6169;282.5273;2.1809E-5;8.1E-7;0;Iridium
14.34546885;0.0002199;86.3926;112.0815;77.6461;282.4981;1.9437E-5;7.5E-7;0;Iridium
14.34546997;0.0002173;86.3926;111.7018;77.6674;282.4765;1.9099E-5;7.4E-7;0;Iridium
14.34546997;0.000217;86.3926;111.6726;77.7063;282.4376;1.8236E-5;7.1E-7;0;Iridium
14.34547101;0.0002145;86.3925;111.2638;77.6815;282.4621;1.8172E-5;7.1E-7;0;Iridium
14.34547262;0.0002117;86.3924;110.8549;77.6033;282.54;2.1468E-5;8.0E-7;0;Iridium
14.34547266;0.0002115;86.3923;110.8257;77.6171;282.5261;2.1204E-5;8.0E-7;0;Iridium
14.34547417;0.0002086;86.3923;110.446;77.7317;282.4112;2.4943E-5;9.0E-7;0;Iridium
14.34547434;0.0002084;86.3923;110.4168;77.6887;282.4542;2.5157E-5;9.1E-7;0;Iridium
14.3454754;0.000206;86.3922;110.0371;77.7745;282.3682;2.6673E-5;9.5E-7;0;Iridium
14.34547542;0.0002059;86.3922;110.0079;77.7989;282.3438;2.6191E-5;9.4E-7;0;Iridium
14.3454758;0.0002055;86.3921;109.9495;77.6941;282.4485;2.7299E-5;9.7E-7;0;Iridium
14.34547686;0.0002032;86.3921;109.5991;77.5583;282.584;2.8207E-5;9.9E-7;0;Iridium
14.34547686;0.0002032;86.3921;109.5991;77.5583;282.584;2.8207E-5;9.9E-7;0;Iridium
14.34547779;0.0001994;86.392;109.1612;77.9145;282.2274;2.665E-5;9.5E-7;0;Iridium
14.34547923;0.0001968;86.3919;108.7815;78.1623;281.9793;2.8152E-5;9.9E-7;0;Iridium
14.34547937;0.0001966;86.3919;108.7523;78.1851;281.9565;2.8019E-5;9.9E-7;0;Iridium
14.34548118;0.0001943;86.3918;108.3433;78.5855;281.5559;2.9138E-5;1.02E-6;0;Iridium
14.34548118;0.0001943;86.3918;108.3433;78.5855;281.5559;2.9138E-5;1.02E-6;0;Iridium
14.34548171;0.0001937;86.3918;108.1973;78.6211;281.5203;2.9259E-5;1.02E-6;0;Iridium
14.34548301;0.0001923;86.3918;107.9636;78.7523;281.3889;3.1055E-5;1.07E-6;0;Iridium
14.34548378;0.0001913;86.3918;107.7591;78.9027;281.2384;3.0214E-5;1.05E-6;0;Iridium
14.34548445;0.0001896;86.3918;107.4963;79.1916;280.9493;2.7127E-5;9.6E-7;0;Iridium
14.3454848;0.0001893;86.3918;107.3794;79.3344;280.8065;2.6935E-5;9.6E-7;0;Iridium
14.34548552;0.0001876;86.3918;107.0874;79.6606;280.4801;2.2889E-5;8.4E-7;0;Iridium
14.3454861;0.0001868;86.3918;106.9121;79.8848;280.2559;2.1772E-5;8.1E-7;0;Iridium
14.34548679;0.0001854;86.3918;106.6785;80.1139;280.0266;2.0817E-5;7.8E-7;0;Iridium
14.34548758;0.0001847;86.3918;106.5032;80.2749;279.8656;2.2117E-5;8.2E-7;0;Iridium
14.34548779;0.0001845;86.3918;106.4448;80.3832;279.7572;2.1556E-5;8.1E-7;0;Iridium
14.34548918;0.000183;86.3919;106.1235;80.7943;279.3459;2.4049E-5;8.8E-7;0;Iridium
14.34548982;0.0001821;86.3919;105.9775;81.2167;278.9235;2.4797E-5;9.0E-7;0;Iridium
14.34549048;0.0001812;86.3919;105.8315;81.3601;278.78;2.4697E-5;8.9E-7;0;Iridium
14.34549124;0.0001806;86.3919;105.6562;81.6722;278.4679;2.5453E-5;9.2E-7;0;Iridium
14.34549192;0.0001794;86.3919;105.4518;82.0332;278.1067;2.5519E-5;9.2E-7;0;Iridium
14.34549298;0.0001789;86.3919;105.2473;82.2982;277.8417;2.7471E-5;9.7E-7;0;Iridium
14.34549367;0.0001778;86.3919;105.0136;82.699;277.4408;2.7275E-5;9.7E-7;0;Iridium
14.34549367;0.0001778;86.3919;105.0136;82.699;277.4408;2.7275E-5;9.7E-7;0;Iridium
14.34549422;0.0001772;86.3919;104.8384;82.9864;277.1533;2.7225E-5;9.7E-7;0;Iridium
14.34549471;0.0001761;86.3919;104.5755;83.5512;276.5885;2.5846E-5;9.3E-7;0;Iridium
14.34549532;0.0001757;86.3918;104.4003;83.947;276.1926;2.6621E-5;9.5E-7;0;Iridium
14.34549617;0.0001748;86.3919;104.1666;84.5385;275.601;2.7495E-5;9.7E-7;0;Iridium
14.34549712;0.0001745;86.3919;103.9914;84.8198;275.3197;2.9793E-5;1.04E-6;0;Iridium
14.3454989;0.0001736;86.3919;103.5825;85.5491;274.5904;3.2493E-5;1.11E-6;0;Iridium
14.34549981;0.0001728;86.392;103.3197;85.8785;274.2609;3.1886E-5;1.1E-6;0;Iridium
14.34549981;0.0001728;86.392;103.3197;85.8785;274.2609;3.1886E-5;1.1E-6;0;Iridium
14.34550072;0.0001722;86.392;103.1445;86.1414;273.9979;3.2639E-5;1.12E-6;0;Iridium
14.34550161;0.0001718;86.3921;102.9109;86.8791;273.2602;3.2178E-5;1.11E-6;0;Iridium
14.34550232;0.0001716;86.3921;102.7357;87.2131;272.9261;3.1684E-5;1.09E-6;0;Iridium
14.34550342;0.0001714;86.3922;102.5021;88.0231;272.1161;3.161E-5;1.09E-6;0;Iridium
14.34550423;0.0001714;86.3922;102.3269;88.3558;271.7834;3.1381E-5;1.08E-6;0;Iridium
14.34550553;0.0001715;86.3923;101.8888;89.5364;270.6028;2.6736E-5;9.5E-7;0;Iridium
14.34550622;0.0001714;86.3923;101.6551;89.9985;270.1407;2.4574E-5;8.9E-7;0;Iridium
14.34550765;0.000171;86.3924;101.2462;90.686;269.4532;2.2667E-5;8.4E-7;0;Iridium
14.34550808;0.0001719;86.3924;101.071;91.1746;268.9647;2.1392E-5;8.0E-7;0;Iridium
14.34550843;0.0001717;86.3925;100.8374;91.7037;268.4355;1.8689E-5;7.2E-7;0;Iridium
14.3455092;0.0001726;86.3925;100.633;92.4188;267.7205;1.8689E-5;7.2E-7;0;Iridium
14.34550956;0.0001725;86.3926;100.3994;92.8259;267.3134;1.707E-5;6.8E-7;0;Iridium
14.34550956;0.0001725;86.3926;100.3994;92.8259;267.3134;1.707E-5;6.8E-7;0;Iridium
14.34550998;0.000173;86.3926;100.2242;93.2119;266.9275;1.6839E-5;6.7E-7;0;Iridium
14.34551106;0.0001736;86.3927;99.9905;93.862;266.2774;1.9046E-5;7.3E-7;0;Iridium
14.34551156;0.0001742;86.3927;99.8153;94.1704;265.9691;1.9508E-5;7.5E-7;0;Iridium
14.34551237;0.0001743;86.3928;99.5817;94.4614;265.6781;2.1256E-5;8.0E-7;0;Iridium
14.34551237;0.0001743;86.3928;99.5817;94.4614;265.6781;2.1256E-5;8.0E-7;0;Iridium
14.34551308;0.0001749;86.3928;99.3773;94.7393;265.4003;2.2158E-5;8.2E-7;0;Iridium
14.34551363;0.0001749;86.3929;99.1729;94.9693;265.1702;2.3473E-5;8.6E-7;0;Iridium
14.34551427;0.0001757;86.3929;98.9393;95.2999;264.8397;2.3711E-5;8.7E-7;0;Iridium
14.34551494;0.0001762;86.393;98.735;95.706;264.4336;2.5236E-5;9.1E-7;0;Iridium
14.34551554;0.0001769;86.393;98.5598;96.0135;264.1262;2.6072E-5;9.3E-7;0;Iridium
14.34551644;0.0001779;86.3931;98.3262;96.6165;263.5234;2.7371E-5;9.7E-7;0;Iridium
14.34551726;0.0001793;86.3931;98.1218;97.0118;263.1282;2.7971E-5;9.9E-7;0;Iridium
14.34551831;0.00018;86.3931;97.8591;97.2329;262.9072;2.9479E-5;1.03E-6;0;Iridium
14.34551898;0.0001808;86.3931;97.7131;97.2442;262.896;2.9782E-5;1.04E-6;0;Iridium
14.34551963;0.0001817;86.3932;97.4795;97.6408;262.4994;2.9012E-5;1.02E-6;0;Iridium
14.34552042;0.0001827;86.3932;97.3043;97.8189;262.3215;2.9536E-5;1.03E-6;0;Iridium
14.34552114;0.0001837;86.3933;97.0708;98.2397;261.9008;2.8626E-5;1.0E-6;0;Iridium
14.3455218;0.0001849;86.3934;96.8665;98.4992;261.6413;2.7125E-5;9.6E-7;0;Iridium
14.34552216;0.0001857;86.3934;96.6621;98.7223;261.4184;2.4924E-5;9.0E-7;0;Iridium
14.34552291;0.0001871;86.3935;96.4578;98.8736;261.2672;2.3866E-5;8.7E-7;0;Iridium
14.34552335;0.000188;86.3936;96.2534;98.9503;261.1906;2.241E-5;8.3E-7;0;Iridium
14.345524;0.0001891;86.3937;96.0491;99.068;261.073;2.1087E-5;7.9E-7;0;Iridium
14.34552481;0.0001903;86.3938;95.8156;99.3341;260.807;2.0867E-5;7.9E-7;0;Iridium
14.34552535;0.0001917;86.3938;95.6112;99.5653;260.5759;1.9304E-5;7.4E-7;0;Iridium
14.34552652;0.0001928;86.3939;95.4068;99.7642;260.3772;2.1713E-5;8.1E-7;0;Iridium
14.34552733;0.0001945;86.394;95.2025;99.9882;260.1534;2.1261E-5;8.0E-7;0;Iridium
14.34552822;0.0001956;86.3941;94.9982;100.1504;259.9912;2.2741E-5;8.4E-7;0;Iridium
14.34552822;0.0001956;86.3941;94.9982;100.1504;259.9912;2.2741E-5;8.4E-7;0;Iridium
14.34552902;0.000197;86.3942;94.7939;100.2132;259.9286;2.2588E-5;8.3E-7;0;Iridium
14.34552986;0.0001981;86.3943;94.5604;100.2405;259.9015;2.3166E-5;8.5E-7;0;Iridium
14.34552986;0.0001981;86.3943;94.5604;100.2405;259.9015;2.3166E-5;8.5E-7;0;Iridium
14.34553033;0.0002001;86.3944;94.3561;100.4514;259.6907;2.2207E-5;8.2E-7;0;Iridium
14.34553102;0.0002012;86.3944;94.1518;100.6424;259.4999;2.2889E-5;8.4E-7;0;Iridium
14.34553177;0.0002029;86.3945;93.9475;100.7788;259.3636;2.3435E-5;8.6E-7;0;Iridium
14.34553245;0.0002038;86.3945;93.7431;100.7909;259.3516;2.4493E-5;8.9E-7;0;Iridium
14.34553312;0.0002055;86.3946;93.5388;100.8784;259.2644;2.4605E-5;8.9E-7;0;Iridium
14.34553441;0.0002085;86.3947;93.101;100.784;259.3591;2.5556E-5;9.2E-7;0;Iridium
14.34553495;0.0002097;86.3948;92.8967;100.6682;259.4751;2.5915E-5;9.3E-7;0;Iridium
14.34553705;0.0002128;86.3949;92.459;100.8437;259.2998;3.0052E-5;1.05E-6;0;Iridium
14.34553705;0.0002128;86.3949;92.459;100.8437;259.2998;3.0052E-5;1.05E-6;0;Iridium
14.34553818;0.0002146;86.395;92.2839;100.9224;259.2214;3.2095E-5;1.1E-6;0;Iridium
14.34553894;0.0002162;86.3951;92.0504;100.8527;259.2912;3.22E-5;1.11E-6;0;Iridium
14.34554017;0.0002176;86.3952;91.8462;100.7718;259.3723;3.3702E-5;1.15E-6;0;Iridium
14.34554137;0.0002187;86.3952;91.6419;100.6768;259.4674;3.5588E-5;1.2E-6;0;Iridium
14.34554192;0.0002202;86.3953;91.4377;100.6675;259.4769;3.2465E-5;1.11E-6;0;Iridium
